NORAD_CAT_ID,OBJECT_NAME,OBJECT_TYPE,EPOCH,MEAN_MOTION,ECCENTRICITY,INCLINATION,RA_OF_ASC_NODE,ARG_OF_PERICENTER,MEAN_ANOMALY,BSTAR,MEAN_MOTION_DOT,MEAN_MOTION_DDOT,TLE_LINE0,TLE_LINE1,TLE_LINE2,SEMIMAJOR_AXIS,PERIOD,APOGEE,PERIGEE,DECAYED
53563.0,STARLINK-4561,PAYLOAD,2023-01-19 01:52:54,15.08836179,0.0001030999999999,53.219,157.1861,104.3034,255.8073,0.00034796,5.254e-05,0.0,0 STARLINK-4561,1 53563U 22101AN  23019.07841238  .00005254  00000-0  34796-3 0  9994,2 53563  53.2190 157.1861 0001031 104.3034 255.8073 15.08836179 23499,6917.892,95.438,540.47,539.044,0.0
53563.0,STARLINK-4561,PAYLOAD,2023-01-19 11:25:14,15.08831413,0.0001189999999999,53.2179,155.4014,83.064,277.0488,-1.3105e-05,-4.96e-06,0.0,0 STARLINK-4561,1 53563U 22101AN  23019.47585941 -.00000496  00000-0 -13105-4 0  9991,2 53563  53.2179 155.4014 0001190  83.0640 277.0488 15.08831413 23558,6917.906999999999,95.438,540.595,538.948,0.0
53563.0,STARLINK-4561,PAYLOAD,2023-01-19 14:36:00,15.08830647,0.0001122,53.2188,154.8059,89.4177,270.6944,-4.2536e-05,-9.64e-06,0.0,0 STARLINK-4561,1 53563U 22101AN  23019.60833989 -.00000964  00000-0 -42536-4 0  9994,2 53563  53.2188 154.8059 0001122  89.4177 270.6944 15.08830647 23576,6917.909000000001,95.438,540.55,538.998,0.0
53563.0,STARLINK-4561,PAYLOAD,2023-01-20 01:43:42,15.08833929,0.0001155,53.2185,152.7248,86.9667,273.1457,3.3568e-05,2.46e-06,0.0,0 STARLINK-4561,1 53563U 22101AN  23020.07202165  .00000246  00000-0  33568-4 0  9999,2 53563  53.2185 152.7248 0001155  86.9667 273.1457 15.08833929 23643,6917.899,95.438,540.563,538.965,0.0
53563.0,STARLINK-4561,PAYLOAD,2023-01-20 16:02:09,15.08859049,0.000115,53.2177,150.0495,83.7802,276.3321,0.00045558,6.974e-05,0.0,0 STARLINK-4561,1 53563U 22101AN  23020.66817125  .00006974  00000-0  45558-3 0  9997,2 53563  53.2177 150.0495 0001150  83.7802 276.3321 15.08859049 23736,6917.822,95.436,540.483,538.892,0.0
53563.0,STARLINK-4561,PAYLOAD,2023-01-21 03:09:52,15.08845792,0.0001244,53.2182,147.968,95.134,264.9795,0.00030601,4.586e-05,0.0,0 STARLINK-4561,1 53563U 22101AN  23021.13185461  .00004586  00000-0  30601-3 0  9991,2 53563  53.2182 147.9680 0001244  95.1340 264.9795 15.08845792 23807,6917.863,95.437,540.5880000000001,538.867,0.0
53563.0,STARLINK-4561,PAYLOAD,2023-01-22 07:46:48,15.08848818,0.0001081,53.218,142.6157,86.5626,273.54900000000004,0.00080354,0.00012527,0.0,0 STARLINK-4561,1 53563U 22101AN  23022.32417638  .00012527  00000-0  80354-3 0  9991,2 53563  53.2180 142.6157 0001081  86.5626 273.5490 15.08848818 23985,6917.853,95.437,540.466,538.971,0.0
53563.0,STARLINK-4561,PAYLOAD,2023-01-23 07:37:36,15.08854963,0.0001065,53.219,138.1549,82.1653,277.946,0.0016457999999999,0.00026013,0.0,0 STARLINK-4561,1 53563U 22101AN  23023.31777914  .00026013  00000-0  16458-2 0  9995,2 53563  53.2190 138.1549 0001065  82.1653 277.9460 15.08854963 24136,6917.835,95.437,540.436,538.9630000000001,0.0
53563.0,STARLINK-4561,PAYLOAD,2023-01-23 13:59:08,15.08845803,0.0001032,53.2189,136.9651,74.5884,285.5222,0.00090612,0.00014165,0.0,0 STARLINK-4561,1 53563U 22101AN  23023.58273928  .00014165  00000-0  90612-3 0  9990,2 53563  53.2189 136.9651 0001032  74.5884 285.5222 15.08845803 24177,6917.863,95.437,540.442,539.014,0.0
53563.0,STARLINK-4561,PAYLOAD,2023-01-24 10:39:09,15.0885106,0.0001074,53.219,133.0994,53.7416,306.3675,0.0012542,0.00019735,0.0,0 STARLINK-4561,1 53563U 22101AN  23024.44386216  .00019735  00000-0  12542-2 0  9994,2 53563  53.2190 133.0994 0001074  53.7416 306.3675 15.08851060 24304,6917.847,95.437,540.455,538.969,0.0
53563.0,STARLINK-4561,PAYLOAD,2023-01-24 12:14:32,15.0884762,0.0001132,53.2192,132.80100000000002,92.9355,267.1766,0.00094505,0.00014788,0.0,0 STARLINK-4561,1 53563U 22101AN  23024.51010101  .00014788  00000-0  94505-3 0  9992,2 53563  53.2192 132.8010 0001132  92.9355 267.1766 15.08847620 24317,6917.857,95.437,540.505,538.939,0.0
53563.0,STARLINK-4561,PAYLOAD,2023-01-25 12:05:20,15.08839247,0.0001137999999999,53.2188,128.3418,100.3878,259.7242,0.00016052,2.268e-05,0.0,0 STARLINK-4561,1 53563U 22101AN  23025.50370477  .00002268  00000-0  16052-3 0  9998,2 53563  53.2188 128.3418 0001138 100.3878 259.7242 15.08839247 24462,6917.883000000001,95.438,540.535,538.96,0.0
53563.0,STARLINK-4561,PAYLOAD,2023-01-25 13:40:43,15.08843731,0.0001064,53.2184,128.0459,88.7089,271.4025,0.00024792,3.66e-05,0.0,0 STARLINK-4561,1 53563U 22101AN  23025.56994446  .00003660  00000-0  24792-3 0  9999,2 53563  53.2184 128.0459 0001064  88.7089 271.4025 15.08843731 24475,6917.869000000001,95.437,540.47,538.998,0.0
53563.0,STARLINK-4561,PAYLOAD,2023-01-26 11:56:06,15.08848648,0.0001231999999999,53.2194,123.8837,93.0491,267.0642,0.00025945,3.845e-05,0.0,0 STARLINK-4561,1 53563U 22101AN  23026.49730205  .00003845  00000-0  25945-3 0  9999,2 53563  53.2194 123.8837 0001232  93.0491 267.0642 15.08848648 24616,6917.854,95.437,540.571,538.867,0.0
53563.0,STARLINK-4561,PAYLOAD,2023-01-27 02:14:35,15.08836555,0.0001176,53.2183,121.2072,90.7968,269.3159,-4.6262e-05,-1.024e-05,0.0,0 STARLINK-4561,1 53563U 22101AN  23027.09346436 -.00001024  00000-0 -46262-4 0  9990,2 53563  53.2183 121.2072 0001176  90.7968 269.3159 15.08836555 24709,6917.891,95.438,540.569,538.942,0.0
53563.0,STARLINK-4561,PAYLOAD,2023-01-27 13:22:17,15.08841719,0.0001161,53.2186,119.1253,87.8754,272.2371,8.89e-05,1.127e-05,0.0,0 STARLINK-4561,1 53563U 22101AN  23027.55714316  .00001127  00000-0  88900-4 0  9994,2 53563  53.2186 119.1253 0001161  87.8754 272.2371 15.08841719 24777,6917.875,95.437,540.543,538.937,0.0
53563.0,STARLINK-4561,PAYLOAD,2023-01-28 11:37:41,15.08843943,0.0001082,53.2199,114.9627,101.7977,258.3136,1.7487e-05,-9e-08,0.0,0 STARLINK-4561,1 53563U 22101AN  23028.48450584 -.00000009  00000-0  17487-4 0  9992,2 53563  53.2199 114.9627 0001082 101.7977 258.3136 15.08843943 24915,6917.868,95.437,540.482,538.985,0.0
53563.0,STARLINK-4561,PAYLOAD,2023-01-28 13:13:04,15.08845512,0.0001103,53.2198,114.6652,101.7636,258.348,3.0348e-05,1.95e-06,0.0,0 STARLINK-4561,1 53563U 22101AN  23028.55074431  .00000195  00000-0  30348-4 0  9999,2 53563  53.2198 114.6652 0001103 101.7636 258.3480 15.08845512 24922,6917.864,95.437,540.492,538.966,0.0
53563.0,STARLINK-4561,PAYLOAD,2023-01-28 14:48:27,15.08848548,0.0001112,53.2196,114.3677,101.6116,258.5001,5.6712e-05,6.15e-06,0.0,0 STARLINK-4561,1 53563U 22101AN  23028.61698148  .00000615  00000-0  56712-4 0  9993,2 53563  53.2196 114.3677 0001112 101.6116 258.5001 15.08848548 24930,6917.854,95.437,540.489,538.95,0.0
53563.0,STARLINK-4561,PAYLOAD,2023-01-29 01:56:10,15.08830299,0.000124,53.2197,112.2867,87.8552,272.2583,8.329e-05,1.038e-05,0.0,0 STARLINK-4561,1 53563U 22101AN  23029.08067230  .00001038  00000-0  83290-4 0  9998,2 53563  53.2197 112.2867 0001240  87.8552 272.2583 15.08830299 25001,6917.91,95.438,540.633,538.917,0.0
53563.0,STARLINK-4561,PAYLOAD,2023-01-29 14:39:14,15.08843914,0.0001141,53.2197,109.9075,88.7608,271.3515,0.00010774,1.427e-05,0.0,0 STARLINK-4561,1 53563U 22101AN  23029.61058439  .00001427  00000-0  10774-3 0  9996,2 53563  53.2197 109.9075 0001141  88.7608 271.3515 15.08843914 25088,6917.868,95.437,540.523,538.944,0.0
53563.0,STARLINK-4561,PAYLOAD,2023-01-30 04:57:43,15.08831857,0.0001169,53.2197,107.2314,90.4017,269.7109,9.3509e-05,1.2e-05,0.0,0 STARLINK-4561,1 53563U 22101AN  23030.20675359  .00001200  00000-0  93509-4 0  9996,2 53563  53.2197 107.2314 0001169  90.4017 269.7109 15.08831857 25172,6917.905,95.438,540.579,538.962,0.0
53563.0,STARLINK-4561,PAYLOAD,2023-01-30 11:19:15,15.08840212,0.0001173,53.2198,106.0416,96.512,263.6006,0.00013236,1.819e-05,0.0,0 STARLINK-4561,1 53563U 22101AN  23030.47170761  .00001819  00000-0  13236-3 0  9996,2 53563  53.2198 106.0416 0001173  96.5120 263.6006 15.08840212 25219,6917.88,95.438,540.556,538.933,0.0
53563.0,STARLINK-4561,PAYLOAD,2023-01-31 11:10:02,15.08840926,0.0001374,53.2194,101.5831,75.7416,284.3728,0.00012442,1.693e-05,0.0,0 STARLINK-4561,1 53563U 22101AN  23031.46530870  .00001693  00000-0  12442-3 0  9995,2 53563  53.2194 101.5831 0001374  75.7416 284.3728 15.08840926 25365,6917.878,95.437,540.693,538.792,0.0
53563.0,STARLINK-4561,PAYLOAD,2023-02-01 11:00:49,15.08842907,0.0001304,53.2198,97.1211,91.1653,268.9488,0.00010248,1.344e-05,0.0,0 STARLINK-4561,1 53563U 22101AN  23032.45890528  .00001344  00000-0  10248-3 0  9999,2 53563  53.2198  97.1211 0001304  91.1653 268.9488 15.08842907 25518,6917.872,95.437,540.639,538.834,0.0
53563.0,STARLINK-4561,PAYLOAD,2023-02-02 09:16:14,15.0883094,0.0001188,53.22,92.9615,84.0296,276.0832,5.0407e-06,-2.08e-06,0.0,0 STARLINK-4561,1 53563U 22101AN  23033.38627645 -.00000208  00000-0  50407-5 0  9992,2 53563  53.2200  92.9615 0001188  84.0296 276.0832 15.08830940 25659,6917.908,95.438,540.595,538.951,0.0
53563.0,STARLINK-4561,PAYLOAD,2023-02-02 20:23:56,15.08834361,0.000145,53.2209,90.8812,120.8625,239.251,1.1511e-05,-1.05e-06,0.0,0 STARLINK-4561,1 53563U 22101AN  23033.84995457 -.00000105  00000-0  11511-4 0  9990,2 53563  53.2209  90.8812 0001450 120.8625 239.2510 15.08834361 25724,6917.898,95.438,540.766,538.76,0.0
53563.0,STARLINK-4561,PAYLOAD,2023-02-03 09:07:03,15.08812167,0.0001262,53.2204,88.5001,98.6402,261.4733,-0.00025239,-4.299e-05,0.0,0 STARLINK-4561,1 53563U 22101AN  23034.37989793 -.00004299  00000-0 -25239-3 0  9995,2 53563  53.2204  88.5001 0001262  98.6402 261.4733 15.08812167 25802,6917.965,95.439,540.704,538.957,0.0
53563.0,STARLINK-4561,PAYLOAD,2023-02-04 10:33:11,15.08841874,0.0001304,53.2195,83.7433,96.912,263.2021,0.00022455,3.288e-05,0.0,0 STARLINK-4561,1 53563U 22101AN  23035.43971970  .00003288  00000-0  22455-3 0  9993,2 53563  53.2195  83.7433 0001304  96.9120 263.2021 15.08841874 25966,6917.875,95.437,540.642,538.838,0.0
